{"type": "FeatureCollection", "features": [ {"type": "Feature", "properties": {"norad_id": 66960, "name": "STARLINK-35879", "group": "last-30-days", "lat": 41.66635859108556, "lon": 152.06780244402302, "alt_km": 390.46451782743134, "timestamp": "2025-12-27T04:40:44.220710+00:00", "meta": {"OBJECT_NAME": "STARLINK-35879", "OBJECT_ID": "2025-288B", "EPOCH": "2025-12-26T22:00:01.999584", "MEAN_MOTION": 15.58334832, "ECCENTRICITY": 0.00013441, "INCLINATION": 43.0003, "RA_OF_ASC_NODE": 80.9684, "ARG_OF_PERICENTER": 269.9706, "MEAN_ANOMALY": 44.9219, "EPHEMERIS_TYPE": 0, "CLASSIFICATION_TYPE": "U", "NORAD_CAT_ID": 66960, "ELEMENT_SET_NO": 999, "REV_AT_EPOCH": 410, "BSTAR": -0.030086673, "MEAN_MOTION_DOT": -0.02090087, "MEAN_MOTION_DDOT": 0}, "tle": {"line1": "1 66960U 25288B   25360.91668981 -.02090087  00000+0 -30087-1 0  9992", "line2": "2 66960  43.0003  80.9684 0001344 269.9706  44.9219 15.58334832  4101"}}, "geometry": {"type": "Point", "coordinates": [152.06780244402302, 41.66635859108556]}}, {"type": "Feature", "properties": {"norad_id": 66961, "name": "STARLINK-35761", "group": "last-30-days", "lat": 42.02716348645301, "lon": 154.596417035825, "alt_km": 390.53459042116083, "timestamp": "2025-12-27T04:40:44.220720+00:00", "meta": {"OBJECT_NAME": "STARLINK-35761", "OBJECT_ID": "2025-288C", "EPOCH": "2025-12-26T22:00:01.999584", "MEAN_MOTION": 15.58336277, "ECCENTRICITY": 0.00015354, "INCLINATION": 43.0004, "RA_OF_ASC_NODE": 80.9644, "ARG_OF_PERICENTER": 271.8815, "MEAN_ANOMALY": 44.9274, "EPHEMERIS_TYPE": 0, "CLASSIFICATION_TYPE": "U", "NORAD_CAT_ID": 66961, "ELEMENT_SET_NO": 999, "REV_AT_EPOCH": 410, "BSTAR": -0.030099533, "MEAN_MOTION_DOT": -0.02091116, "MEAN_MOTION_DDOT": 0}, "tle": {"line1": "1 66961U 25288C   25360.91668981 -.02091116  00000+0 -30100-1 0  9993", "line2": "2 66961  43.0004  80.9644 0001535 271.8815  44.9274 15.58336277  4100"}}, "geometry": {"type": "Point", "coordinates": [154.596417035825, 42.02716348645301]}}, {"type": "Feature", "properties": {"norad_id": 66962, "name": "STARLINK-35874", "group": "last-30-days", "lat": 42.331170601354216, "lon": 157.1478367002188, "alt_km": 390.4208328101013, "timestamp": "2025-12-27T04:40:44.220730+00:00", "meta": {"OBJECT_NAME": "STARLINK-35874", "OBJECT_ID": "2025-288D", "EPOCH": "2025-12-26T22:00:01.999584", "MEAN_MOTION": 15.58333705, "ECCENTRICITY": 0.00014215, "INCLINATION": 43.0003, "RA_OF_ASC_NODE": 80.9596, "ARG_OF_PERICENTER": 272.4362, "MEAN_ANOMALY": 46.291, "EPHEMERIS_TYPE": 0, "CLASSIFICATION_TYPE": "U", "NORAD_CAT_ID": 66962, "ELEMENT_SET_NO": 999, "REV_AT_EPOCH": 410, "BSTAR": -0.030063589, "MEAN_MOTION_DOT": -0.0208863, "MEAN_MOTION_DDOT": 0}, "tle": {"line1": "1 66962U 25288D   25360.91668981 -.02088630  00000+0 -30064-1 0  9990", "line2": "2 66962  43.0003  80.9596 0001421 272.4362  46.2910 15.58333705  4109"}}, "geometry": {"type": "Point", "coordinates": [157.1478367002188, 42.331170601354216]}}, {"type": "Feature", "properties": {"norad_id": 66963, "name": "STARLINK-36133", "group": "last-30-days", "lat": 42.57829440578038, "lon": 159.72430926048756, "alt_km": 390.485428070936, "timestamp": "2025-12-27T04:40:44.220740+00:00", "meta": {"OBJECT_NAME": "STARLINK-36133", "OBJECT_ID": "2025-288E", "EPOCH": "2025-12-26T22:00:01.999584", "MEAN_MOTION": 15.58332619, "ECCENTRICITY": 0.0001558, "INCLINATION": 43.0004, "RA_OF_ASC_NODE": 80.9549, "ARG_OF_PERICENTER": 272.9377, "MEAN_ANOMALY": 47.7082, "EPHEMERIS_TYPE": 0, "CLASSIFICATION_TYPE": "U", "NORAD_CAT_ID": 66963, "ELEMENT_SET_NO": 999, "REV_AT_EPOCH": 410, "BSTAR": -0.030054779, "MEAN_MOTION_DOT": -0.020881, "MEAN_MOTION_DDOT": 0}, "tle": {"line1": "1 66963U 25288E   25360.91668981 -.02088100  00000+0 -30055-1 0  9993", "line2": "2 66963  43.0004  80.9549 0001558 272.9377  47.7082 15.58332619  4100"}}, "geometry": {"type": "Point", "coordinates": [159.72430926048756, 42.57829440578038]}}, {"type": "Feature", "properties": {"norad_id": 66964, "name": "STARLINK-36104", "group": "last-30-days", "lat": 42.76697433902005, "lon": 162.3169372297768, "alt_km": 390.46548220072873, "timestamp": "2025-12-27T04:40:44.220751+00:00", "meta": {"OBJECT_NAME": "STARLINK-36104", "OBJECT_ID": "2025-288F", "EPOCH": "2025-12-26T22:00:01.999584", "MEAN_MOTION": 15.58333338, "ECCENTRICITY": 0.00015778, "INCLINATION": 43.0005, "RA_OF_ASC_NODE": 80.9497, "ARG_OF_PERICENTER": 274.9908, "MEAN_ANOMALY": 47.5708, "EPHEMERIS_TYPE": 0, "CLASSIFICATION_TYPE": "U", "NORAD_CAT_ID": 66964, "ELEMENT_SET_NO": 999, "REV_AT_EPOCH": 410, "BSTAR": -0.03005417, "MEAN_MOTION_DOT": -0.02088127, "MEAN_MOTION_DDOT": 0}, "tle": {"line1": "1 66964U 25288F   25360.91668981 -.02088127  00000+0 -30054-1 0  9992", "line2": "2 66964  43.0005  80.9497 0001577 274.9908  47.5708 15.58333338  4109"}}, "geometry": {"type": "Point", "coordinates": [162.3169372297768, 42.76697433902005]}}, {"type": "Feature", "properties": {"norad_id": 66965, "name": "STARLINK-36067", "group": "last-30-days", "lat": 42.89632299676593, "lon": 164.92149911000993, "alt_km": 390.42546051843874, "timestamp": "2025-12-27T04:40:44.220762+00:00", "meta": {"OBJECT_NAME": "STARLINK-36067", "OBJECT_ID": "2025-288G", "EPOCH": "2025-12-26T22:00:01.999584", "MEAN_MOTION": 15.58335838, "ECCENTRICITY": 0.00015201, "INCLINATION": 43.0004, "RA_OF_ASC_NODE": 80.9456, "ARG_OF_PERICENTER": 271.4053, "MEAN_ANOMALY": 53.071, "EPHEMERIS_TYPE": 0, "CLASSIFICATION_TYPE": "U", "NORAD_CAT_ID": 66965, "ELEMENT_SET_NO": 999, "REV_AT_EPOCH": 410, "BSTAR": -0.030064729, "MEAN_MOTION_DOT": -0.02088919, "MEAN_MOTION_DDOT": 0}, "tle": {"line1": "1 66965U 25288G   25360.91668981 -.02088919  00000+0 -30065-1 0  9994", "line2": "2 66965  43.0004  80.9456 0001520 271.4053  53.0710 15.58335838  4107"}}, "geometry": {"type": "Point", "coordinates": [164.92149911000993, 42.89632299676593]}}, {"type": "Feature", "properties": {"norad_id": 66966, "name": "STARLINK-36139", "group": "last-30-days", "lat": 42.966518599359105, "lon": 167.53876175601056, "alt_km": 390.48254092928073, "timestamp": "2025-12-27T04:40:44.220772+00:00", "meta": {"OBJECT_NAME": "STARLINK-36139", "OBJECT_ID": "2025-288H", "EPOCH": "2025-12-26T22:00:01.999584", "MEAN_MOTION": 15.58333715, "ECCENTRICITY": 0.00016328, "INCLINATION": 43.0005, "RA_OF_ASC_NODE": 80.9403, "ARG_OF_PERICENTER": 276.7396, "MEAN_ANOMALY": 49.6559, "EPHEMERIS_TYPE": 0, "CLASSIFICATION_TYPE": "U", "NORAD_CAT_ID": 66966, "ELEMENT_SET_NO": 999, "REV_AT_EPOCH": 410, "BSTAR": -0.030066725, "MEAN_MOTION_DOT": -0.02088969, "MEAN_MOTION_DDOT": 0}, "tle": {"line1": "1 66966U 25288H   25360.91668981 -.02088969  00000+0 -30067-1 0  9992", "line2": "2 66966  43.0005  80.9403 0001632 276.7396  49.6559 15.58333715  4107"}}, "geometry": {"type": "Point", "coordinates": [167.53876175601056, 42.966518599359105]}}, {"type": "Feature", "properties": {"norad_id": 66967, "name": "STARLINK-36136", "group": "last-30-days", "lat": 42.9765956297334, "lon": 170.15386730636286, "alt_km": 390.47439941211724, "timestamp": "2025-12-27T04:40:44.220781+00:00", "meta": {"OBJECT_NAME": "STARLINK-36136", "OBJECT_ID": "2025-288J", "EPOCH": "2025-12-26T22:00:01.999584", "MEAN_MOTION": 15.58337603, "ECCENTRICITY": 0.00016014, "INCLINATION": 43.0004, "RA_OF_ASC_NODE": 80.9357, "ARG_OF_PERICENTER": 271.9484, "MEAN_ANOMALY": 56.3606, "EPHEMERIS_TYPE": 0, "CLASSIFICATION_TYPE": "U", "NORAD_CAT_ID": 66967, "ELEMENT_SET_NO": 999, "REV_AT_EPOCH": 410, "BSTAR": -0.030088615, "MEAN_MOTION_DOT": -0.0209058, "MEAN_MOTION_DDOT": 0}, "tle": {"line1": "1 66967U 25288J   25360.91668981 -.02090580  00000+0 -30089-1 0  9999", "line2": "2 66967  43.0004  80.9357 0001601 271.9484  56.3606 15.58337603  4104"}}, "geometry": {"type": "Point", "coordinates": [170.15386730636286, 42.9765956297334]}}, {"type": "Feature", "properties": {"norad_id": 66968, "name": "STARLINK-36152", "group": "last-30-days", "lat": 42.92684429949814, "lon": 172.76994531481196, "alt_km": 390.3364649042114, "timestamp": "2025-12-27T04:40:44.220795+00:00", "meta": {"OBJECT_NAME": "STARLINK-36152", "OBJECT_ID": "2025-288K", "EPOCH": "2025-12-26T22:00:01.999584", "MEAN_MOTION": 15.58331922, "ECCENTRICITY": 0.00013888, "INCLINATION": 43.0003, "RA_OF_ASC_NODE": 80.9302, "ARG_OF_PERICENTER": 275.2705, "MEAN_ANOMALY": 54.9585, "EPHEMERIS_TYPE": 0, "CLASSIFICATION_TYPE": "U", "NORAD_CAT_ID": 66968, "ELEMENT_SET_NO": 999, "REV_AT_EPOCH": 410, "BSTAR": -0.030005302, "MEAN_MOTION_DOT": -0.02084871, "MEAN_MOTION_DDOT": 0}, "tle": {"line1": "1 66968U 25288K   25360.91668981 -.02084871  00000+0 -30005-1 0  9994", "line2": "2 66968  43.0003  80.9302 0001388 275.2705  54.9585 15.58331922  4107"}}, "geometry": {"type": "Point", "coordinates": [172.76994531481196, 42.92684429949814]}}, {"type": "Feature", "properties": {"norad_id": 66969, "name": "STARLINK-36149", "group": "last-30-days", "lat": 41.795669797743436, "lon": -174.34551440304523, "alt_km": 390.6476755167223, "timestamp": "2025-12-27T04:40:44.220807+00:00", "meta": {"OBJECT_NAME": "STARLINK-36149", "OBJECT_ID": "2025-288L", "EPOCH": "2025-12-26T22:00:01.999584", "MEAN_MOTION": 15.5833223, "ECCENTRICITY": 0.00015874, "INCLINATION": 43.0002, "RA_OF_ASC_NODE": 80.9064, "ARG_OF_PERICENTER": 274.7577, "MEAN_ANOMALY": 65.0566, "EPHEMERIS_TYPE": 0, "CLASSIFICATION_TYPE": "U", "NORAD_CAT_ID": 66969, "ELEMENT_SET_NO": 999, "REV_AT_EPOCH": 410, "BSTAR": -0.030000374, "MEAN_MOTION_DOT": -0.02084723, "MEAN_MOTION_DDOT": 0}, "tle": {"line1": "1 66969U 25288L   25360.91668981 -.02084723  00000+0 -30000-1 0  9996", "line2": "2 66969  43.0002  80.9064 0001587 274.7577  65.0566 15.58332230  4109"}}, "geometry": {"type": "Point", "coordinates": [-174.34551440304523, 41.795669797743436]}}]}